ONEWEB-0228             
1 48780U 21045P   24102.90868978 -.00000053  00000+0 -17519-3 0  9998
2 48780  87.9012  57.6359 0001806  80.5255 279.6080 13.15550123139631
